NORAD_CAT_ID,OBJECT_NAME,OBJECT_TYPE,EPOCH,MEAN_MOTION,ECCENTRICITY,INCLINATION,RA_OF_ASC_NODE,ARG_OF_PERICENTER,MEAN_ANOMALY,BSTAR,MEAN_MOTION_DOT,MEAN_MOTION_DDOT,TLE_LINE0,TLE_LINE1,TLE_LINE2,SEMIMAJOR_AXIS,PERIOD,APOGEE,PERIGEE,DECAYED
53703.0,STARLINK-4731,PAYLOAD,2024-03-12 19:29:34,15.08838007,4.73e-05,53.2166,266.9449,77.9777,282.1269,7.1466e-05,8.5e-06,0.0,0 STARLINK-4731,1 53703U 22107D   24072.81220814  .00000850  00000-0  71466-4 0  9992,2 53703  53.2166 266.9449 0000473  77.9777 282.1269 15.08838007 85127,6917.886,95.438,540.079,539.424,0.0
53703.0,STARLINK-4731,PAYLOAD,2024-03-13 12:58:48,15.08852435,0.0001601,53.2087,263.6716,93.5435,266.574,-9.7575e-05,-1.841e-05,0.0,0 STARLINK-4731,1 53703U 22107D   24073.54084343 -.00001841  00000-0 -97575-4 0  9990,2 53703  53.2087 263.6716 0001601  93.5435 266.5740 15.08852435 84488,6917.842,95.437,540.815,538.6,0.0
53703.0,STARLINK-4731,PAYLOAD,2024-03-13 22:31:05,15.08898521,3.57e-05,53.2172,261.8917,83.3211,276.7821,-0.00081074,-0.00013188,0.0,0 STARLINK-4731,1 53703U 22107D   24073.93826222 -.00013188  00000-0 -81074-3 0  9996,2 53703  53.2172 261.8917 0000357  83.3211 276.7821 15.08898521 85291,6917.702,95.434,539.813,539.32,0.0
53703.0,STARLINK-4731,PAYLOAD,2024-03-14 11:14:13,15.0883322,0.0001076,53.2167,259.5133,83.7397,276.3718,2.8905e-05,1.72e-06,0.0,0 STARLINK-4731,1 53703U 22107D   24074.46821395  .00000172  00000-0  28905-4 0  9993,2 53703  53.2167 259.5133 0001076  83.7397 276.3718 15.08833220 84629,6917.901,95.438,540.51,539.022,0.0
53703.0,STARLINK-4731,PAYLOAD,2024-03-14 22:21:55,15.08834593,0.0001133,53.2165,257.432,82.6319,277.4802,3.3547e-05,2.46e-06,0.0,0 STARLINK-4731,1 53703U 22107D   24074.93189433  .00000246  00000-0  33547-4 0  9995,2 53703  53.2165 257.4320 0001133  82.6319 277.4802 15.08834593 85449,6917.897,95.438,540.546,538.978,0.0
53703.0,STARLINK-4731,PAYLOAD,2024-03-16 10:55:47,15.08840089,0.0001055,53.2157,250.591,80.608,279.5032,4.0571e-05,3.58e-06,0.0,0 STARLINK-4731,1 53703U 22107D   24076.45541367  .00000358  00000-0  40571-4 0  9991,2 53703  53.2157 250.5910 0001055  80.6080 279.5032 15.08840089 84922,6917.88,95.438,540.475,539.015,0.0
53703.0,STARLINK-4731,PAYLOAD,2024-03-16 18:52:43,15.08839001,0.0001195,53.2168,249.1039,82.7183,277.3945,0.0001106,1.473e-05,0.0,0 STARLINK-4731,1 53703U 22107D   24076.78661664  .00001473  00000-0  11060-3 0  9999,2 53703  53.2168 249.1039 0001195  82.7183 277.3945 15.08839001 85722,6917.883,95.438,540.575,538.922,0.0
53703.0,STARLINK-4731,PAYLOAD,2024-03-17 10:46:34,15.08841928,0.0001163,53.2167,246.1302,87.3256,272.7869,0.0001031,1.353e-05,0.0,0 STARLINK-4731,1 53703U 22107D   24077.44901513  .00001353  00000-0  10310-3 0  9997,2 53703  53.2167 246.1302 0001163  87.3256 272.7869 15.08841928 85824,6917.874,95.437,540.544,538.935,0.0
53703.0,STARLINK-4731,PAYLOAD,2024-03-17 18:43:30,15.08842652,0.0001133,53.2169,244.6433,85.5149,274.5972,8.0587e-05,9.95e-06,0.0,0 STARLINK-4731,1 53703U 22107D   24077.78021523  .00000995  00000-0  80587-4 0  9993,2 53703  53.2169 244.6433 0001133  85.5149 274.5972 15.08842652 85125,6917.872,95.437,540.521,538.953,0.0
53703.0,STARLINK-4731,PAYLOAD,2024-03-19 10:28:08,15.08845445,0.0001289,53.2177,237.2107,72.9396,287.1738,9.9991e-05,1.304e-05,0.0,0 STARLINK-4731,1 53703U 22107D   24079.43621208  .00001304  00000-0  99991-4 0  9997,2 53703  53.2177 237.2107 0001289  72.9396 287.1738 15.08845445 85376,6917.864,95.437,540.62,538.837,0.0
53703.0,STARLINK-4731,PAYLOAD,2024-03-20 13:29:42,15.08834276,0.0001133,53.2162,232.153,89.9188,270.1934,-0.00050635,-8.336e-05,0.0,0 STARLINK-4731,1 53703U 22107D   24080.56229574 -.00008336  00000-0 -50635-3 0  9998,2 53703  53.2162 232.1530 0001133  89.9188 270.1934 15.08834276 86291,6917.898,95.438,540.547,538.979,0.0
53703.0,STARLINK-4731,PAYLOAD,2024-03-20 15:05:05,15.08834367,0.000121,53.2161,231.8555,91.5054,268.6077,-0.000491,-8.092e-05,0.0,0 STARLINK-4731,1 53703U 22107D   24080.62853550 -.00008092  00000-0 -49100-3 0  9996,2 53703  53.2161 231.8555 0001210  91.5054 268.6077 15.08834367 85559,6917.898,95.438,540.6,538.926,0.0
53703.0,STARLINK-4731,PAYLOAD,2024-03-21 13:20:29,15.08839793,0.0001179,53.2162,227.6924,86.8189,273.2938,-0.00016353,-2.889e-05,0.0,0 STARLINK-4731,1 53703U 22107D   24081.55589455 -.00002889  00000-0 -16353-3 0  9991,2 53703  53.2162 227.6924 0001179  86.8189 273.2938 15.08839793 85694,6917.881,95.438,540.562,538.93,0.0
53703.0,STARLINK-4731,PAYLOAD,2024-03-21 14:55:52,15.08842647,0.0001237,53.2161,227.3953,84.3649,275.7484,-8.9891e-05,-1.718e-05,0.0,0 STARLINK-4731,1 53703U 22107D   24081.62213347 -.00001718  00000-0 -89891-4 0  9991,2 53703  53.2161 227.3953 0001237  84.3649 275.7484 15.08842647 86451,6917.872,95.437,540.593,538.882,0.0
53703.0,STARLINK-4731,PAYLOAD,2024-03-21 16:31:15,15.08841769,0.0001177,53.216,227.0982,86.8551,273.2576,0.00012928,1.77e-05,0.0,0 STARLINK-4731,1 53703U 22107D   24081.68837433  .00001770  00000-0  12928-3 0  9997,2 53703  53.2160 227.0982 0001177  86.8551 273.2576 15.08841769 86461,6917.875,95.437,540.554,538.926,0.0
53703.0,STARLINK-4731,PAYLOAD,2024-03-22 10:00:31,15.08831793,0.00012,53.2167,223.833,91.3709,268.742,0.0005298,8.152e-05,0.0,0 STARLINK-4731,1 53703U 22107D   24082.41702671  .00008152  00000-0  52980-3 0  9997,2 53703  53.2167 223.8330 0001200  91.3709 268.7420 15.08831793 85824,6917.905,95.438,540.601,538.94,0.0
53703.0,STARLINK-4731,PAYLOAD,2024-03-22 14:46:40,15.08832214,0.0001662,53.2165,222.9361,109.6012,250.516,0.0002176,3.176e-05,0.0,0 STARLINK-4731,1 53703U 22107D   24082.61574584  .00003176  00000-0  21760-3 0  9992,2 53703  53.2165 222.9361 0001662 109.6012 250.5160 15.08832214 86604,6917.904,95.438,540.919,538.619,0.0
53703.0,STARLINK-4731,PAYLOAD,2024-03-22 19:32:49,15.08837911,0.0001465,53.2159,222.0426,100.575,259.5407,0.00022827,3.347e-05,0.0,0 STARLINK-4731,1 53703U 22107D   24082.81446477  .00003347  00000-0  22827-3 0  9998,2 53703  53.2159 222.0426 0001465 100.5750 259.5407 15.08837911 86635,6917.887,95.438,540.765,538.738,0.0
53703.0,STARLINK-4731,PAYLOAD,2024-03-23 13:02:04,15.08836191,0.0001657,53.2159,218.7685,102.1106,258.0072,0.00047181,7.228e-05,0.0,0 STARLINK-4731,1 53703U 22107D   24083.54311077  .00007228  00000-0  47181-3 0  9998,2 53703  53.2159 218.7685 0001657 102.1106 258.0072 15.08836191 85999,6917.892,95.438,540.903,538.611,0.0
53703.0,STARLINK-4731,PAYLOAD,2024-03-23 14:37:27,15.08836663,0.0001621,53.216,218.4713,101.7553,258.3621,0.00036293,5.492e-05,0.0,0 STARLINK-4731,1 53703U 22107D   24083.60935057  .00005492  00000-0  36293-3 0  9998,2 53703  53.2160 218.4713 0001621 101.7553 258.3621 15.08836663 86754,6917.891,95.438,540.877,538.634,0.0
53703.0,STARLINK-4731,PAYLOAD,2024-03-24 14:28:14,15.08847885,0.000167,53.2166,214.011,105.7514,254.3663,0.00046057,7.051e-05,0.0,0 STARLINK-4731,1 53703U 22107D   24084.60294999  .00007051  00000-0  46057-3 0  9994,2 53703  53.2166 214.0110 0001670 105.7514 254.3663 15.08847885 86905,6917.856,95.437,540.877,538.566,0.0
53703.0,STARLINK-4731,PAYLOAD,2024-03-24 16:03:38,15.08849844,0.0001496,53.2159,213.7133,90.0707,270.0457,0.00050129,7.701e-05,0.0,0 STARLINK-4731,1 53703U 22107D   24084.66919006  .00007701  00000-0  50129-3 0  9990,2 53703  53.2159 213.7133 0001496  90.0707 270.0457 15.08849844 86165,6917.85,95.437,540.75,538.68,0.0
53703.0,STARLINK-4731,PAYLOAD,2024-03-25 01:35:56,15.0887674,0.0001475,53.2161,211.929,85.3577,274.7584,0.0012195,0.00019193,0.0,0 STARLINK-4731,1 53703U 22107D   24085.06662296  .00019193  00000-0  12195-2 0  9999,2 53703  53.2161 211.9290 0001475  85.3577 274.7584 15.08876740 86225,6917.768,95.435,540.653,538.613,0.0
53703.0,STARLINK-4731,PAYLOAD,2024-03-25 12:43:38,15.08836898,0.0001918,53.2153,209.8511,85.7379,274.3832,-5.0074e-05,-1.085e-05,0.0,0 STARLINK-4731,1 53703U 22107D   24085.53031197 -.00001085  00000-0 -50074-4 0  9994,2 53703  53.2153 209.8511 0001918  85.7379 274.3832 15.08836898 86293,6917.89,95.438,541.082,538.428,0.0
53703.0,STARLINK-4731,PAYLOAD,2024-03-25 15:54:25,15.08847473,0.0001312,53.2163,209.2545,94.9454,265.1688,0.00033866,5.107e-05,0.0,0 STARLINK-4731,1 53703U 22107D   24085.66278994  .00005107  00000-0  33866-3 0  9992,2 53703  53.2163 209.2545 0001312  94.9454 265.1688 15.08847473 86310,6917.858,95.437,540.63,538.815,0.0
53703.0,STARLINK-4731,PAYLOAD,2024-03-26 14:09:49,15.08840274,0.0001325,53.2173,205.0929,105.4394,254.6745,0.00042027,6.407e-05,0.0,0 STARLINK-4731,1 53703U 22107D   24086.59015577  .00006407  00000-0  42027-3 0  9994,2 53703  53.2173 205.0929 0001325 105.4394 254.6745 15.08840274 86450,6917.88,95.438,540.661,538.828,0.0
53703.0,STARLINK-4731,PAYLOAD,2024-03-27 14:00:35,15.08847717,0.0001691,53.2161,200.6351,96.1539,263.9646,-0.00034649,-5.799e-05,0.0,0 STARLINK-4731,1 53703U 22107D   24087.58374425 -.00005799  00000-0 -34649-3 0  9990,2 53703  53.2161 200.6351 0001691  96.1539 263.9646 15.08847717 87352,6917.857,95.437,540.892,538.552,0.0
53703.0,STARLINK-4731,PAYLOAD,2024-03-28 12:16:00,15.08832354,0.0001602,53.2177,196.4714,82.9842,277.1332,0.0013529,0.00021304,0.0,0 STARLINK-4731,1 53703U 22107D   24088.51111148  .00021304  00000-0  13529-2 0  9996,2 53703  53.2177 196.4714 0001602  82.9842 277.1332 15.08832354 86748,6917.904,95.438,540.877,538.661,0.0
53703.0,STARLINK-4731,PAYLOAD,2024-03-29 12:06:47,15.08842282,0.000143,53.2169,192.0104,79.3,280.8153,0.00054966,8.471e-05,0.0,0 STARLINK-4731,1 53703U 22107D   24089.50471455  .00008471  00000-0  54966-3 0  9997,2 53703  53.2169 192.0104 0001430  79.3000 280.8153 15.08842282 86898,6917.873,95.437,540.728,538.749,0.0
53703.0,STARLINK-4731,PAYLOAD,2024-03-29 16:52:56,15.08845997,0.0001435,53.2171,191.119,79.8575,280.2579,0.00060323,9.327e-05,0.0,0 STARLINK-4731,1 53703U 22107D   24089.70343438  .00009327  00000-0  60323-3 0  9993,2 53703  53.2171 191.1190 0001435  79.8575 280.2579 15.08845997 87672,6917.862,95.437,540.72,538.734,0.0
